STARLINK-4506           
1 53554U 22101AD  24232.31377063  .00001537  00000+0  11460-3 0  9991
2 53554  53.2168  91.1790 0000998  98.6571 261.4534 15.08843255110657
STARLINK-4504           
1 53555U 22101AE  24232.32385620  .00005447  00000+0  35998-3 0  9997
2 53555  53.2151  91.1223 0001100  81.7120 278.3997 15.08847466111312
STARLINK-4505           
1 53556U 22101AF  24232.63665653  .00000690  00000+0  61423-4 0  9997
2 53556  53.2165  89.7226 0002178 108.1151 252.0079 15.08849773110703
STARLINK-4502           
1 53557U 22101AG  24232.31648885  .00006499  00000+0  42586-3 0  9992
2 53557  53.2158  91.1582 0001152  87.4055 272.7069 15.08856994110656
STARLINK-4494           
1 53558U 22101AH  24232.30771529  .00004657  00000+0  31040-3 0  9991
2 53558  53.2149  85.9185 0001193  82.4645 277.6482 15.08847923111388
STARLINK-4508           
1 53559U 22101AJ  24232.30913039  .00004444  00000+0  29708-3 0  9998
2 53559  53.2150  91.1911 0001174  98.8364 261.2761 15.08848740110651
STARLINK-4564           
1 53560U 22101AK  24232.28431298  .00002301  00000+0  16256-3 0  9993
2 53560  53.2164  81.4833 0001022  69.6154 290.4948 15.08846183110782
STARLINK-4563           
1 53561U 22101AL  24232.63298355 -.00004400  00000+0 -25870-3 0  9994
2 53561  53.2163  89.7355 0000910  87.9422 272.1675 15.08818712110701
STARLINK-4565           
1 53562U 22101AM  24232.28062585  .00003464  00000+0  23558-3 0  9998
2 53562  53.2160  81.4687 0001322  78.9597 281.1544 15.08847839111446
STARLINK-4561           
1 53563U 22101AN  24232.61920671 -.00001482  00000+0 -75077-4 0  9999
2 53563  53.2165  80.0221 0001209  92.4961 267.6170 15.08828706110839
STARLINK-4577           
1 53564U 22101AP  24232.53821729  .00003028  00000+0  20820-3 0  9996
2 53564  53.2167  80.2323 0001473  90.6072 269.5089 15.08850462110826
STARLINK-4575           
1 53565U 22101AQ  24232.87775199 -.00001758  00000+0 -92407-4 0  9994
2 53565  53.2171  78.7911 0001721  81.1552 278.9635 15.08833612110875
STARLINK-4576           
1 53566U 22101AR  24232.86205411  .00000016  00000+0  19117-4 0  9990
2 53566  53.2167  78.7000 0001343 103.5063 256.6079 15.08837628110872
STARLINK-4585           
1 53567U 22101AS  24232.27694045 -.00001313  00000+0 -64382-4 0  9998
2 53567  53.2164  81.4353 0001268  75.1703 284.9429 15.08847110110783
STARLINK-4583           
1 53568U 22101AT  24231.85739486  .00014734  00000+0  94132-3 0  9995
2 53568  53.2157  83.0897 0001181  84.9803 275.1324 15.08861459111419
STARLINK-4582           
1 53569U 22101AU  24232.60077401  .00002278  00000+0  16112-3 0  9994
2 53569  53.2166  79.9097 0001470 102.1104 258.0053 15.08847042110830
STARLINK-4550           
1 53570U 22101AV  24232.58972331  .00000775  00000+0  66786-4 0  9992
2 53570  53.2174  79.8420 0001629  82.0304 278.0873 15.08838716110834
STARLINK-4584           
1 53571U 22101AW  24232.59341118  .00010704  00000+0  68959-3 0  9993
2 53571  53.2162  79.8669 0001662  72.0723 288.0450 15.08841744110835
STARLINK-4555           
1 53572U 22101AX  24232.56761894 -.00003176  00000+0 -18162-3 0  9996
2 53572  53.2154  79.7037 0001173  90.3671 269.7455 15.08828964110837
STARLINK-4547           
1 53573U 22101AY  24232.31739173  .00000683  00000+0  60987-4 0  9996
2 53573  53.2167  80.9810 0001398 107.6257 252.4888 15.08841802110796
STARLINK-4559           
1 53574U 22101AZ  24232.57129823  .00004605  00000+0  30714-3 0  9992
2 53574  53.2141  79.7335 0002145  70.5522 289.5701 15.08849909110837
STARLINK-4551           
1 53575U 22101BA  24232.31371363  .00000907  00000+0  75064-4 0  9992
2 53575  53.2172  80.9625 0001357  92.9192 267.1955 15.08838950111482
STARLINK-4581           
1 53576U 22101BB  24232.31466208  .00004683  00000+0  31200-3 0  9994
2 53576  53.2159  80.9650 0001160  83.4502 276.6623 15.08852034111619
STARLINK-4553           
1 53577U 22101BC  24232.31002093  .00001498  00000+0  11215-3 0  9998
2 53577  53.2178  80.9264 0001171 126.7988 233.3112 15.08843998111615
STARLINK-4556           
1 53578U 22101BD  24232.56393122  .00001044  00000+0  83664-4 0  9997
2 53578  53.2144  79.6816 0001394  94.0216 266.0935 15.08836284110834
STARLINK-4580           
1 53579U 22101BE  24232.03032976  .00004477  00000+0  29915-3 0  9998
2 53579  53.2170  82.0349 0001075  81.5413 278.5701 15.08843523110753
STARLINK-4691           
1 53588U 22104A   24232.42509105  .00000907  00000+0  75070-4 0  9995
2 53588  53.2157 270.9217 0001345  93.1312 266.9834 15.08835725110457
STARLINK-4673           
1 53589U 22104B   24232.47290993  .00004911  00000+0  32637-3 0  9993
2 53589  53.2152 270.5086 0001396  78.4072 281.7077 15.08848485109299
