OBJECT_NAME,OBJECT_ID,EPOCH,MEAN_MOTION,ECCENTRICITY,INCLINATION,RA_OF_ASC_NODE,ARG_OF_PERICENTER,MEAN_ANOMALY,EPHEMERIS_TYPE,CLASSIFICATION_TYPE,NORAD_CAT_ID,ELEMENT_SET_NO,REV_AT_EPOCH,BSTAR,MEAN_MOTION_DOT,MEAN_MOTION_DDOT
STARLINK-4506,2022-101AD,2024-08-19T07:31:49.782432,15.08843255,.0000998,53.2168,91.1790,98.6571,261.4534,0,U,53554,999,11065,.1146E-3,.1537E-4,0
STARLINK-4504,2022-101AE,2024-08-19T07:46:21.175680,15.08847466,.00011,53.2151,91.1223,81.7120,278.3997,0,U,53555,999,11131,.35998E-3,.5447E-4,0
STARLINK-4505,2022-101AF,2024-08-19T15:16:47.124192,15.08849773,.0002178,53.2165,89.7226,108.1151,252.0079,0,U,53556,999,11070,.61423E-4,.69E-5,0
STARLINK-4502,2022-101AG,2024-08-19T07:35:44.636640,15.08856994,.0001152,53.2158,91.1582,87.4055,272.7069,0,U,53557,999,11065,.42586E-3,.6499E-4,0
STARLINK-4494,2022-101AH,2024-08-19T07:23:06.601056,15.08847923,.0001193,53.2149,85.9185,82.4645,277.6482,0,U,53558,999,11138,.3104E-3,.4657E-4,0
STARLINK-4508,2022-101AJ,2024-08-19T07:25:08.865696,15.08848740,.0001174,53.2150,91.1911,98.8364,261.2761,0,U,53559,999,11065,.29708E-3,.4444E-4,0
STARLINK-4564,2022-101AK,2024-08-19T06:49:24.641472,15.08846183,.0001022,53.2164,81.4833,69.6154,290.4948,0,U,53560,999,11078,.16256E-3,.2301E-4,0
STARLINK-4563,2022-101AL,2024-08-19T15:11:29.778720,15.08818712,.000091,53.2163,89.7355,87.9422,272.1675,0,U,53561,999,11070,-.2587E-3,-.44E-4,0
STARLINK-4565,2022-101AM,2024-08-19T06:44:06.073440,15.08847839,.0001322,53.2160,81.4687,78.9597,281.1544,0,U,53562,999,11144,.23558E-3,.3464E-4,0
STARLINK-4561,2022-101AN,2024-08-19T14:51:39.459744,15.08828706,.0001209,53.2165,80.0221,92.4961,267.6170,0,U,53563,999,11083,-.75077E-4,-.1482E-4,0
STARLINK-4577,2022-101AP,2024-08-19T12:55:01.973856,15.08850462,.0001473,53.2167,80.2323,90.6072,269.5089,0,U,53564,999,11082,.2082E-3,.3028E-4,0
STARLINK-4575,2022-101AQ,2024-08-19T21:03:57.771936,15.08833612,.0001721,53.2171,78.7911,81.1552,278.9635,0,U,53565,999,11087,-.92407E-4,-.1758E-4,0
STARLINK-4576,2022-101AR,2024-08-19T20:41:21.475104,15.08837628,.0001343,53.2167,78.7000,103.5063,256.6079,0,U,53566,999,11087,.19117E-4,.16E-6,0
STARLINK-4585,2022-101AS,2024-08-19T06:38:47.654880,15.08847110,.0001268,53.2164,81.4353,75.1703,284.9429,0,U,53567,999,11078,-.64382E-4,-.1313E-4,0
STARLINK-4583,2022-101AT,2024-08-18T20:34:38.915904,15.08861459,.0001181,53.2157,83.0897,84.9803,275.1324,0,U,53568,999,11141,.94132E-3,.14734E-3,0
STARLINK-4582,2022-101AU,2024-08-19T14:25:06.874464,15.08847042,.000147,53.2166,79.9097,102.1104,258.0053,0,U,53569,999,11083,.16112E-3,.2278E-4,0
STARLINK-4550,2022-101AV,2024-08-19T14:09:12.093984,15.08838716,.0001629,53.2174,79.8420,82.0304,278.0873,0,U,53570,999,11083,.66786E-4,.775E-5,0
STARLINK-4584,2022-101AW,2024-08-19T14:14:30.725952,15.08841744,.0001662,53.2162,79.8669,72.0723,288.0450,0,U,53571,999,11083,.68959E-3,.10704E-3,0
STARLINK-4555,2022-101AX,2024-08-19T13:37:22.276416,15.08828964,.0001173,53.2154,79.7037,90.3671,269.7455,0,U,53572,999,11083,-.18162E-3,-.3176E-4,0
STARLINK-4547,2022-101AY,2024-08-19T07:37:02.645472,15.08841802,.0001398,53.2167,80.9810,107.6257,252.4888,0,U,53573,999,11079,.60987E-4,.683E-5,0
STARLINK-4559,2022-101AZ,2024-08-19T13:42:40.167072,15.08849909,.0002145,53.2141,79.7335,70.5522,289.5701,0,U,53574,999,11083,.30714E-3,.4605E-4,0
STARLINK-4551,2022-101BA,2024-08-19T07:31:44.857632,15.08838950,.0001357,53.2172,80.9625,92.9192,267.1955,0,U,53575,999,11148,.75064E-4,.907E-5,0
STARLINK-4581,2022-101BB,2024-08-19T07:33:06.803712,15.08852034,.000116,53.2159,80.9650,83.4502,276.6623,0,U,53576,999,11161,.312E-3,.4683E-4,0
STARLINK-4553,2022-101BC,2024-08-19T07:26:25.808352,15.08843998,.0001171,53.2178,80.9264,126.7988,233.3112,0,U,53577,999,11161,.11215E-3,.1498E-4,0
STARLINK-4556,2022-101BD,2024-08-19T13:32:03.657408,15.08836284,.0001394,53.2144,79.6816,94.0216,266.0935,0,U,53578,999,11083,.83664E-4,.1044E-4,0
STARLINK-4580,2022-101BE,2024-08-19T00:43:40.491264,15.08843523,.0001075,53.2170,82.0349,81.5413,278.5701,0,U,53579,999,11075,.29915E-3,.4477E-4,0
STARLINK-4691,2022-104A,2024-08-19T10:12:07.866720,15.08835725,.0001345,53.2157,270.9217,93.1312,266.9834,0,U,53588,999,11045,.7507E-4,.907E-5,0
STARLINK-4673,2022-104B,2024-08-19T11:20:59.417952,15.08848485,.0001396,53.2152,270.5086,78.4072,281.7077,0,U,53589,999,10929,.32637E-3,.4911E-4,0
